{
  "type": "FeatureCollection",
  "features": [
    {
      "type": "Feature",
      "properties": {
        "norad_id": 34976,
        "name": "COSMOS 2251 DEB",
        "group": "cosmos-2251-debris",
        "lat": 48.58772422563403,
        "lon": -62.21151041581862,
        "alt_km": 633.6793983278594,
        "timestamp": "2025-12-26T17:24:55.115256+00:00",
        "meta_object_name": "COSMOS 2251 DEB",
        "meta_object_id": "1993-036AFF",
        "meta_epoch": "2025-12-24T05:42:41.204160",
        "meta_mean_motion": 14.76809395,
        "meta_eccentricity": 0.00477961,
        "meta_inclination": 74.058,
        "meta_ra_of_asc_node": 283.7455,
        "meta_arg_of_pericenter": 327.9934,
        "meta_mean_anomaly": 182.3501,
        "meta_ephemeris_type": 0,
        "meta_classification_type": "U",
        "meta_norad_cat_id": 34976,
        "meta_element_set_no": 999,
        "meta_rev_at_epoch": 88443,
        "meta_bstar": 0.0017837373,
        "meta_mean_motion_dot": 0.00012745,
        "meta_mean_motion_ddot": 0,
        "tle_line1": "1 34976U 93036AFF 25358.23797690  .00012745  00000+0  17837-2 0  9992",
        "tle_line2": "2 34976  74.0580 283.7455 0047796 327.9934 182.3501 14.76809395884438"
      },
      "geometry": {
        "type": "Point",
        "coordinates": [
          -62.21151041581862,
          48.58772422563403
        ]
      }
    },
    {
      "type": "Feature",
      "properties": {
        "norad_id": 34979,
        "name": "COSMOS 2251 DEB",
        "group": "cosmos-2251-debris",
        "lat": -54.11867068883141,
        "lon": 83.05019752005528,
        "alt_km": 629.6800033675254,
        "timestamp": "2025-12-26T17:24:55.115267+00:00",
        "meta_object_name": "COSMOS 2251 DEB",
        "meta_object_id": "1993-036AFJ",
        "meta_epoch": "2025-12-26T01:44:12.448320",
        "meta_mean_motion": 14.79574346,
        "meta_eccentricity": 0.00491742,
        "meta_inclination": 74.0387,
        "meta_ra_of_asc_node": 241.0288,
        "meta_arg_of_pericenter": 316.3165,
        "meta_mean_anomaly": 43.4123,
        "meta_ephemeris_type": 0,
        "meta_classification_type": "U",
        "meta_norad_cat_id": 34979,
        "meta_element_set_no": 999,
        "meta_rev_at_epoch": 88417,
        "meta_bstar": 0.0010039197,
        "meta_mean_motion_dot": 7.647e-05,
        "meta_mean_motion_ddot": 0,
        "tle_line1": "1 34979U 93036AFJ 25360.07236630  .00007647  00000+0  10039-2 0  9994",
        "tle_line2": "2 34979  74.0387 241.0288 0049174 316.3165  43.4123 14.79574346884173"
      },
      "geometry": {
        "type": "Point",
        "coordinates": [
          83.05019752005528,
          -54.11867068883141
        ]
      }
    },
    {
      "type": "Feature",
      "properties": {
        "norad_id": 34990,
        "name": "COSMOS 2251 DEB",
        "group": "cosmos-2251-debris",
        "lat": -72.7207465370998,
        "lon": 158.54412279665226,
        "alt_km": 745.8373257784096,
        "timestamp": "2025-12-26T17:24:55.115276+00:00",
        "meta_object_name": "COSMOS 2251 DEB",
        "meta_object_id": "1993-036AFN",
        "meta_epoch": "2025-12-15T10:28:28.781472",
        "meta_mean_motion": 14.42382837,
        "meta_eccentricity": 0.00165597,
        "meta_inclination": 74.0457,
        "meta_ra_of_asc_node": 246.3361,
        "meta_arg_of_pericenter": 308.9911,
        "meta_mean_anomaly": 50.977,
        "meta_ephemeris_type": 0,
        "meta_classification_type": "U",
        "meta_norad_cat_id": 34990,
        "meta_element_set_no": 999,
        "meta_rev_at_epoch": 87385,
        "meta_bstar": 0.00031884459,
        "meta_mean_motion_dot": 1.029e-05,
        "meta_mean_motion_ddot": 0,
        "tle_line1": "1 34990U 93036AFN 25349.43644423  .00001029  00000+0  31884-3 0  9997",
        "tle_line2": "2 34990  74.0457 246.3361 0016559 308.9911  50.9770 14.42382837873857"
      },
      "geometry": {
        "type": "Point",
        "coordinates": [
          158.54412279665226,
          -72.7207465370998
        ]
      }
    },
    {
      "type": "Feature",
      "properties": {
        "norad_id": 34997,
        "name": "COSMOS 2251 DEB",
        "group": "cosmos-2251-debris",
        "lat": -61.13350462450175,
        "lon": 136.5048224231757,
        "alt_km": 678.8256965001528,
        "timestamp": "2025-12-26T17:24:55.115286+00:00",
        "meta_object_name": "COSMOS 2251 DEB",
        "meta_object_id": "1993-036AFV",
        "meta_epoch": "2025-12-25T02:04:43.961088",
        "meta_mean_motion": 14.45692519,
        "meta_eccentricity": 0.0097082,
        "meta_inclination": 73.8805,
        "meta_ra_of_asc_node": 287.9486,
        "meta_arg_of_pericenter": 260.9116,
        "meta_mean_anomaly": 98.1047,
        "meta_ephemeris_type": 0,
        "meta_classification_type": "U",
        "meta_norad_cat_id": 34997,
        "meta_element_set_no": 999,
        "meta_rev_at_epoch": 70925,
        "meta_bstar": 0.0014829351,
        "meta_mean_motion_dot": 5.538e-05,
        "meta_mean_motion_ddot": 0,
        "tle_line1": "1 34997U 93036AFV 25359.08661992  .00005538  00000+0  14829-2 0  9994",
        "tle_line2": "2 34997  73.8805 287.9486 0097082 260.9116  98.1047 14.45692519709258"
      },
      "geometry": {
        "type": "Point",
        "coordinates": [
          136.5048224231757,
          -61.13350462450175
        ]
      }
    },
    {
      "type": "Feature",
      "properties": {
        "norad_id": 34998,
        "name": "COSMOS 2251 DEB",
        "group": "cosmos-2251-debris",
        "lat": -47.76246408081282,
        "lon": 115.30121270084989,
        "alt_km": 721.2788862588677,
        "timestamp": "2025-12-26T17:24:55.115296+00:00",
        "meta_object_name": "COSMOS 2251 DEB",
        "meta_object_id": "1993-036AFW",
        "meta_epoch": "2025-12-25T08:38:30.636384",
        "meta_mean_motion": 14.49334819,
        "meta_eccentricity": 0.0021619,
        "meta_inclination": 74.0105,
        "meta_ra_of_asc_node": 136.2753,
        "meta_arg_of_pericenter": 280.2625,
        "meta_mean_anomaly": 107.2327,
        "meta_ephemeris_type": 0,
        "meta_classification_type": "U",
        "meta_norad_cat_id": 34998,
        "meta_element_set_no": 999,
        "meta_rev_at_epoch": 87603,
        "meta_bstar": 0.0006634,
        "meta_mean_motion_dot": 2.514e-05,
        "meta_mean_motion_ddot": 0,
        "tle_line1": "1 34998U 93036AFW 25359.36007681  .00002514  00000+0  66340-3 0  9992",
        "tle_line2": "2 34998  74.0105 136.2753 0021619 280.2625 107.2327 14.49334819876035"
      },
      "geometry": {
        "type": "Point",
        "coordinates": [
          115.30121270084989,
          -47.76246408081282
        ]
      }
    },
    {
      "type": "Feature",
      "properties": {
        "norad_id": 35012,
        "name": "COSMOS 2251 DEB",
        "group": "cosmos-2251-debris",
        "lat": 73.63498215813357,
        "lon": -171.72528716944103,
        "alt_km": 769.165894927135,
        "timestamp": "2025-12-26T17:24:55.115306+00:00",
        "meta_object_name": "COSMOS 2251 DEB",
        "meta_object_id": "1993-036AFZ",
        "meta_epoch": "2025-12-25T16:03:50.745312",
        "meta_mean_motion": 14.45565174,
        "meta_eccentricity": 0.00814067,
        "meta_inclination": 74.021,
        "meta_ra_of_asc_node": 87.6052,
        "meta_arg_of_pericenter": 225.0249,
        "meta_mean_anomaly": 134.4292,
        "meta_ephemeris_type": 0,
        "meta_classification_type": "U",
        "meta_norad_cat_id": 35012,
        "meta_element_set_no": 999,
        "meta_rev_at_epoch": 87748,
        "meta_bstar": 0.00018643445,
        "meta_mean_motion_dot": 6.56e-06,
        "meta_mean_motion_ddot": 0,
        "tle_line1": "1 35012U 93036AFZ 25359.66933733  .00000656  00000+0  18643-3 0  9997",
        "tle_line2": "2 35012  74.0210  87.6052 0081406 225.0249 134.4292 14.45565174877489"
      },
      "geometry": {
        "type": "Point",
        "coordinates": [
          -171.72528716944103,
          73.63498215813357
        ]
      }
    },
    {
      "type": "Feature",
      "properties": {
        "norad_id": 35014,
        "name": "COSMOS 2251 DEB",
        "group": "cosmos-2251-debris",
        "lat": -70.04539858792448,
        "lon": -111.64764260947213,
        "alt_km": 648.5760927115307,
        "timestamp": "2025-12-26T17:24:55.115330+00:00",
        "meta_object_name": "COSMOS 2251 DEB",
        "meta_object_id": "1993-036AGB",
        "meta_epoch": "2025-12-22T09:43:37.618464",
        "meta_mean_motion": 14.75357031,
        "meta_eccentricity": 0.00066485,
        "meta_inclination": 73.9987,
        "meta_ra_of_asc_node": 24.596,
        "meta_arg_of_pericenter": 203.6446,
        "meta_mean_anomaly": 156.4423,
        "meta_ephemeris_type": 0,
        "meta_classification_type": "U",
        "meta_norad_cat_id": 35014,
        "meta_element_set_no": 999,
        "meta_rev_at_epoch": 71479,
        "meta_bstar": 0.0015862083,
        "meta_mean_motion_dot": 0.00010749,
        "meta_mean_motion_ddot": 0,
        "tle_line1": "1 35014U 93036AGB 25356.40529651  .00010749  00000+0  15862-2 0  9991",
        "tle_line2": "2 35014  73.9987  24.5960 0006648 203.6446 156.4423 14.75357031714792"
      },
      "geometry": {
        "type": "Point",
        "coordinates": [
          -111.64764260947213,
          -70.04539858792448
        ]
      }
    }
  ]
}